{"type": "FeatureCollection", "features": [ {"type": "Feature", "properties": {"norad_id": 33492, "name": "GOSAT (IBUKI)", "group": "resource", "lat": -11.660303241982211, "lon": -76.96577168414512, "alt_km": 673.3227605246057, "timestamp": "2025-12-22T05:49:03.138950+00:00", "meta": {"OBJECT_NAME": "GOSAT (IBUKI)", "OBJECT_ID": "2009-002A", "EPOCH": "2025-12-21T19:07:43.678848", "MEAN_MOTION": 14.67541487, "ECCENTRICITY": 9.96e-05, "INCLINATION": 98.0772, "RA_OF_ASC_NODE": 104.2745, "ARG_OF_PERICENTER": 101.9793, "MEAN_ANOMALY": 258.1523, "EPHEMERIS_TYPE": 0, "CLASSIFICATION_TYPE": "U", "NORAD_CAT_ID": 33492, "ELEMENT_SET_NO": 999, "REV_AT_EPOCH": 90544, "BSTAR": 0.00012586, "MEAN_MOTION_DOT": 6.66e-06, "MEAN_MOTION_DDOT": 0}, "tle": {"line1": "1 33492U 09002A   25355.79703332  .00000666  00000+0  12586-3 0  9998", "line2": "2 33492  98.0772 104.2745 0000996 101.9793 258.1523 14.67541487905448"}}, "geometry": {"type": "Point", "coordinates": [-76.96577168414512, -11.660303241982211]}}, {"type": "Feature", "properties": {"norad_id": 35681, "name": "DEIMOS-1", "group": "resource", "lat": 17.161638564440217, "lon": -21.197656634998168, "alt_km": 646.0798475289175, "timestamp": "2025-12-22T05:49:03.138961+00:00", "meta": {"OBJECT_NAME": "DEIMOS-1", "OBJECT_ID": "2009-041A", "EPOCH": "2025-12-21T17:41:09.848256", "MEAN_MOTION": 14.74964029, "ECCENTRICITY": 0.0002574, "INCLINATION": 97.7148, "RA_OF_ASC_NODE": 155.9213, "ARG_OF_PERICENTER": 65.428, "MEAN_ANOMALY": 294.7198, "EPHEMERIS_TYPE": 0, "CLASSIFICATION_TYPE": "U", "NORAD_CAT_ID": 35681, "ELEMENT_SET_NO": 999, "REV_AT_EPOCH": 88072, "BSTAR": 4.6401e-05, "MEAN_MOTION_DOT": 2.65e-06, "MEAN_MOTION_DDOT": 0}, "tle": {"line1": "1 35681U 09041A   25355.73691954  .00000265  00000+0  46401-4 0  9992", "line2": "2 35681  97.7148 155.9213 0002574  65.4280 294.7198 14.74964029880721"}}, "geometry": {"type": "Point", "coordinates": [-21.197656634998168, 17.161638564440217]}}, {"type": "Feature", "properties": {"norad_id": 35682, "name": "DUBAISAT-1", "group": "resource", "lat": 81.04244220263413, "lon": 63.91806371692299, "alt_km": 645.1740483074273, "timestamp": "2025-12-22T05:49:03.138972+00:00", "meta": {"OBJECT_NAME": "DUBAISAT-1", "OBJECT_ID": "2009-041B", "EPOCH": "2025-12-21T19:39:28.471392", "MEAN_MOTION": 14.74627038, "ECCENTRICITY": 0.0009228, "INCLINATION": 97.9798, "RA_OF_ASC_NODE": 126.3654, "ARG_OF_PERICENTER": 281.8795, "MEAN_ANOMALY": 78.1378, "EPHEMERIS_TYPE": 0, "CLASSIFICATION_TYPE": "U", "NORAD_CAT_ID": 35682, "ELEMENT_SET_NO": 999, "REV_AT_EPOCH": 87895, "BSTAR": 0.00016077, "MEAN_MOTION_DOT": 1.022e-05, "MEAN_MOTION_DDOT": 0}, "tle": {"line1": "1 35682U 09041B   25355.81907953  .00001022  00000+0  16077-3 0  9998", "line2": "2 35682  97.9798 126.3654 0009228 281.8795  78.1378 14.74627038878956"}}, "geometry": {"type": "Point", "coordinates": [63.91806371692299, 81.04244220263413]}}, {"type": "Feature", "properties": {"norad_id": 35931, "name": "OCEANSAT-2", "group": "resource", "lat": -41.12778104309349, "lon": 168.62590881110873, "alt_km": 912.4325036713117, "timestamp": "2025-12-22T05:49:03.138983+00:00", "meta": {"OBJECT_NAME": "OCEANSAT-2", "OBJECT_ID": "2009-051A", "EPOCH": "2025-12-21T21:53:57.622272", "MEAN_MOTION": 13.99622956, "ECCENTRICITY": 0.0015982, "INCLINATION": 98.2217, "RA_OF_ASC_NODE": 355.5823, "ARG_OF_PERICENTER": 20.9915, "MEAN_ANOMALY": 339.1905, "EPHEMERIS_TYPE": 0, "CLASSIFICATION_TYPE": "U", "NORAD_CAT_ID": 35931, "ELEMENT_SET_NO": 999, "REV_AT_EPOCH": 85453, "BSTAR": -4.206e-05, "MEAN_MOTION_DOT": -9.9e-07, "MEAN_MOTION_DDOT": 0}, "tle": {"line1": "1 35931U 09051A   25355.91247248 -.00000099  00000+0 -42060-4 0  9998", "line2": "2 35931  98.2217 355.5823 0015982  20.9915 339.1905 13.99622956854531"}}, "geometry": {"type": "Point", "coordinates": [168.62590881110873, -41.12778104309349]}}, {"type": "Feature", "properties": {"norad_id": 35946, "name": "WORLDVIEW-2 (WV-2)", "group": "resource", "lat": -24.662372089141638, "lon": -116.73034577951954, "alt_km": 774.7671553455702, "timestamp": "2025-12-22T05:49:03.138993+00:00", "meta": {"OBJECT_NAME": "WORLDVIEW-2 (WV-2)", "OBJECT_ID": "2009-055A", "EPOCH": "2025-12-21T18:50:47.075712", "MEAN_MOTION": 14.37727693, "ECCENTRICITY": 0.0004868, "INCLINATION": 98.4777, "RA_OF_ASC_NODE": 66.7457, "ARG_OF_PERICENTER": 48.4665, "MEAN_ANOMALY": 311.6939, "EPHEMERIS_TYPE": 0, "CLASSIFICATION_TYPE": "U", "NORAD_CAT_ID": 35946, "ELEMENT_SET_NO": 999, "REV_AT_EPOCH": 85015, "BSTAR": 6.0265e-05, "MEAN_MOTION_DOT": 1.38e-06, "MEAN_MOTION_DDOT": 0}, "tle": {"line1": "1 35946U 09055A   25355.78526708  .00000138  00000+0  60265-4 0  9993", "line2": "2 35946  98.4777  66.7457 0004868  48.4665 311.6939 14.37727693850155"}}, "geometry": {"type": "Point", "coordinates": [-116.73034577951954, -24.662372089141638]}}, {"type": "Feature", "properties": {"norad_id": 36036, "name": "SMOS", "group": "resource", "lat": -50.08510905112025, "lon": -168.62930409162084, "alt_km": 766.7213271042283, "timestamp": "2025-12-22T05:49:03.139004+00:00", "meta": {"OBJECT_NAME": "SMOS", "OBJECT_ID": "2009-059A", "EPOCH": "2025-12-21T18:22:40.181376", "MEAN_MOTION": 14.39748722, "ECCENTRICITY": 0.0001068, "INCLINATION": 98.4381, "RA_OF_ASC_NODE": 180.6805, "ARG_OF_PERICENTER": 83.1923, "MEAN_ANOMALY": 276.9387, "EPHEMERIS_TYPE": 0, "CLASSIFICATION_TYPE": "U", "NORAD_CAT_ID": 36036, "ELEMENT_SET_NO": 999, "REV_AT_EPOCH": 84792, "BSTAR": 0.00011189, "MEAN_MOTION_DOT": 3.07e-06, "MEAN_MOTION_DDOT": 0}, "tle": {"line1": "1 36036U 09059A   25355.76574284  .00000307  00000+0  11189-3 0  9996", "line2": "2 36036  98.4381 180.6805 0001068  83.1923 276.9387 14.39748722847921"}}, "geometry": {"type": "Point", "coordinates": [-168.62930409162084, -50.08510905112025]}}, {"type": "Feature", "properties": {"norad_id": 36110, "name": "YAOGAN-7", "group": "resource", "lat": -7.949530892105221, "lon": -120.90546867801679, "alt_km": 644.1248687526113, "timestamp": "2025-12-22T05:49:03.139014+00:00", "meta": {"OBJECT_NAME": "YAOGAN-7", "OBJECT_ID": "2009-069A", "EPOCH": "2025-12-21T15:13:41.116224", "MEAN_MOTION": 14.77744348, "ECCENTRICITY": 0.0023381, "INCLINATION": 98.0296, "RA_OF_ASC_NODE": 237.3595, "ARG_OF_PERICENTER": 250.9399, "MEAN_ANOMALY": 108.9279, "EPHEMERIS_TYPE": 0, "CLASSIFICATION_TYPE": "U", "NORAD_CAT_ID": 36110, "ELEMENT_SET_NO": 999, "REV_AT_EPOCH": 86340, "BSTAR": 7.6828e-05, "MEAN_MOTION_DOT": 5e-06, "MEAN_MOTION_DDOT": 0}, "tle": {"line1": "1 36110U 09069A   25355.63450366  .00000500  00000+0  76828-4 0  9997", "line2": "2 36110  98.0296 237.3595 0023381 250.9399 108.9279 14.77744348863401"}}, "geometry": {"type": "Point", "coordinates": [-120.90546867801679, -7.949530892105221]}}, {"type": "Feature", "properties": {"norad_id": 36605, "name": "TANDEM-X", "group": "resource", "lat": -31.518487804287886, "lon": 176.88466809631106, "alt_km": 515.4125113722275, "timestamp": "2025-12-22T05:49:03.139024+00:00", "meta": {"OBJECT_NAME": "TANDEM-X", "OBJECT_ID": "2010-030A", "EPOCH": "2025-12-21T11:29:57.943104", "MEAN_MOTION": 15.19156092, "ECCENTRICITY": 0.0001799, "INCLINATION": 97.4444, "RA_OF_ASC_NODE": 0.7318, "ARG_OF_PERICENTER": 77.8908, "MEAN_ANOMALY": 282.2528, "EPHEMERIS_TYPE": 0, "CLASSIFICATION_TYPE": "U", "NORAD_CAT_ID": 36605, "ELEMENT_SET_NO": 999, "REV_AT_EPOCH": 85966, "BSTAR": 3.7921e-05, "MEAN_MOTION_DOT": 7.29e-06, "MEAN_MOTION_DDOT": 0}, "tle": {"line1": "1 36605U 10030A   25355.47914286  .00000729  00000+0  37921-4 0  9998", "line2": "2 36605  97.4444   0.7318 0001799  77.8908 282.2528 15.19156092859660"}}, "geometry": {"type": "Point", "coordinates": [176.88466809631106, -31.518487804287886]}}, {"type": "Feature", "properties": {"norad_id": 36795, "name": "CARTOSAT-2B", "group": "resource", "lat": -46.72305278990321, "lon": 53.31731221135427, "alt_km": 640.9963455486923, "timestamp": "2025-12-22T05:49:03.139035+00:00", "meta": {"OBJECT_NAME": "CARTOSAT-2B", "OBJECT_ID": "2010-035A", "EPOCH": "2025-12-21T20:17:12.820992", "MEAN_MOTION": 14.78737423, "ECCENTRICITY": 0.0012764, "INCLINATION": 97.7843, "RA_OF_ASC_NODE": 44.5796, "ARG_OF_PERICENTER": 49.7749, "MEAN_ANOMALY": 310.4577, "EPHEMERIS_TYPE": 0, "CLASSIFICATION_TYPE": "U", "NORAD_CAT_ID": 36795, "ELEMENT_SET_NO": 999, "REV_AT_EPOCH": 83364, "BSTAR": 0.00011633, "MEAN_MOTION_DOT": 8.05e-06, "MEAN_MOTION_DDOT": 0}, "tle": {"line1": "1 36795U 10035A   25355.84528728  .00000805  00000+0  11633-3 0  9992", "line2": "2 36795  97.7843  44.5796 0012764  49.7749 310.4577 14.78737423833642"}}, "geometry": {"type": "Point", "coordinates": [53.31731221135427, -46.72305278990321]}}, {"type": "Feature", "properties": {"norad_id": 36834, "name": "YAOGAN-10", "group": "resource", "lat": -53.86653632792971, "lon": -174.9904798369637, "alt_km": 622.6207175135742, "timestamp": "2025-12-22T05:49:03.139046+00:00", "meta": {"OBJECT_NAME": "YAOGAN-10", "OBJECT_ID": "2010-038A", "EPOCH": "2025-12-21T21:07:35.616576", "MEAN_MOTION": 14.84635915, "ECCENTRICITY": 0.0001355, "INCLINATION": 97.913, "RA_OF_ASC_NODE": 15.6322, "ARG_OF_PERICENTER": 78.7993, "MEAN_ANOMALY": 21.4892, "EPHEMERIS_TYPE": 0, "CLASSIFICATION_TYPE": "U", "NORAD_CAT_ID": 36834, "ELEMENT_SET_NO": 999, "REV_AT_EPOCH": 83089, "BSTAR": 8.6857e-05, "MEAN_MOTION_DOT": 6.8e-06, "MEAN_MOTION_DDOT": 0}, "tle": {"line1": "1 36834U 10038A   25355.88027334  .00000680  00000+0  86857-4 0  9992", "line2": "2 36834  97.9130  15.6322 0001355  78.7993  21.4892 14.84635915830891"}}, "geometry": {"type": "Point", "coordinates": [-174.9904798369637, -53.86653632792971]}}]}